ONEWEB-0116             
1 48046U 21025E   24182.29662436  .00000284  00000+0  74261-3 0  9993
2 48046  87.8933 102.8951 0002210  79.1819 280.9559 13.13472630159540
ONEWEB-0150             
1 48047U 21025F   24182.49975987 -.00000271  00000+0 -77628-3 0  9992
2 48047  87.8930 102.8727 0001899  79.3250 280.8092 13.13468007159467
ONEWEB-0107             
1 48048U 21025G   24182.34898748 -.00000448  00000+0 -12611-2 0  9992
2 48048  87.8928 102.9005 0001706  79.4625 280.6696 13.13470444159421
ONEWEB-0101             
1 48049U 21025H   24182.84574767  .00000372  00000+0  98273-3 0  9993
2 48049  87.8934 102.8191 0001993  74.9270 285.2080 13.13470134159466
ONEWEB-0113             
1 48050U 21025J   24182.51880437 -.00000038  00000+0 -13943-3 0  9995
2 48050  87.8932 102.8656 0002175  78.5894 281.5479 13.13472142159504
ONEWEB-0112             
1 48051U 21025K   24182.50610382 -.00000477  00000+0 -13405-2 0  9994
2 48051  87.8928 102.8671 0001977  80.2541 279.8812 13.13470258159513
ONEWEB-0156             
1 48052U 21025L   24182.51562362 -.00000376  00000+0 -10633-2 0  9998
2 48052  87.8930 102.8630 0001955  79.4409 280.6940 13.13470489159496
ONEWEB-0161             
1 48053U 21025M   24182.48865250 -.00000113  00000+0 -34373-3 0  9994
2 48053  87.8936 102.8761 0001844  74.3306 285.8026 13.13471335159421
